[{"OBJECT_NAME":"STARLINK-4338","OBJECT_ID":"2022-077N","EPOCH":"2026-03-18T18:32:56.101920","MEAN_MOTION":15.05642194,"ECCENTRICITY":0.00015939,"INCLINATION":97.6023,"RA_OF_ASC_NODE":260.134,"ARG_OF_PERICENTER":83.2242,"MEAN_ANOMALY":276.9166,"EPHEMERIS_TYPE":0,"CLASSIFICATION_TYPE":"U","NORAD_CAT_ID":53055,"ELEMENT_SET_NO":999,"REV_AT_EPOCH":20234,"BSTAR":-4.7661968e-5,"MEAN_MOTION_DOT":-7.48e-6,"MEAN_MOTION_DDOT":0},{"OBJECT_NAME":"STARLINK-4314","OBJECT_ID":"2022-077P","EPOCH":"2026-03-18T23:00:05.188032","MEAN_MOTION":15.05646565,"ECCENTRICITY":0.00018626,"INCLINATION":97.6026,"RA_OF_ASC_NODE":260.3574,"ARG_OF_PERICENTER":89.6202,"MEAN_ANOMALY":270.5238,"EPHEMERIS_TYPE":0,"CLASSIFICATION_TYPE":"U","NORAD_CAT_ID":53056,"ELEMENT_SET_NO":999,"REV_AT_EPOCH":20237,"BSTAR":2.5259131e-5,"MEAN_MOTION_DOT":3.04e-6,"MEAN_MOTION_DDOT":0},{"OBJECT_NAME":"STARLINK-4252","OBJECT_ID":"2022-077Q","EPOCH":"2026-03-18T18:48:52.550784","MEAN_MOTION":15.05662378,"ECCENTRICITY":8.922e-5,"INCLINATION":97.6032,"RA_OF_ASC_NODE":260.2652,"ARG_OF_PERICENTER":56.943,"MEAN_ANOMALY":303.1883,"EPHEMERIS_TYPE":0,"CLASSIFICATION_TYPE":"U","NORAD_CAT_ID":53057,"ELEMENT_SET_NO":999,"REV_AT_EPOCH":20235,"BSTAR":-0.00012209975,"MEAN_MOTION_DOT":-1.823e-5,"MEAN_MOTION_DDOT":0},{"OBJECT_NAME":"STARLINK-4317","OBJECT_ID":"2022-077R","EPOCH":"2026-03-18T22:42:00.021312","MEAN_MOTION":15.04838127,"ECCENTRICITY":0.00032099,"INCLINATION":97.6026,"RA_OF_ASC_NODE":259.2984,"ARG_OF_PERICENTER":88.9174,"MEAN_ANOMALY":271.242,"EPHEMERIS_TYPE":0,"CLASSIFICATION_TYPE":"U","NORAD_CAT_ID":53058,"ELEMENT_SET_NO":999,"REV_AT_EPOCH":20231,"BSTAR":6.248442e-5,"MEAN_MOTION_DOT":8.22e-6,"MEAN_MOTION_DDOT":0},{"OBJECT_NAME":"STARLINK-4320","OBJECT_ID":"2022-077S","EPOCH":"2026-03-18T22:43:07.707072","MEAN_MOTION":15.01258605,"ECCENTRICITY":8.639e-5,"INCLINATION":97.6012,"RA_OF_ASC_NODE":259.2737,"ARG_OF_PERICENTER":187.2263,"MEAN_ANOMALY":172.8949,"EPHEMERIS_TYPE":0,"CLASSIFICATION_TYPE":"U","NORAD_CAT_ID":53059,"ELEMENT_SET_NO":999,"REV_AT_EPOCH":20230,"BSTAR":-2.4466984e-5,"MEAN_MOTION_DOT":-3.72e-6,"MEAN_MOTION_DDOT":0},{"OBJECT_NAME":"STARLINK-4305","OBJECT_ID":"2022-077T","EPOCH":"2026-03-18T22:50:46.709664","MEAN_MOTION":15.01258995,"ECCENTRICITY":0.00010603,"INCLINATION":97.6016,"RA_OF_ASC_NODE":259.2876,"ARG_OF_PERICENTER":98.0152,"MEAN_ANOMALY":262.1192,"EPHEMERIS_TYPE":0,"CLASSIFICATION_TYPE":"U","NORAD_CAT_ID":53060,"ELEMENT_SET_NO":999,"REV_AT_EPOCH":20230,"BSTAR":-5.066374e-6,"MEAN_MOTION_DOT":-1.23e-6,"MEAN_MOTION_DDOT":0},{"OBJECT_NAME":"STARLINK-4308","OBJECT_ID":"2022-077U","EPOCH":"2026-03-18T22:40:06.521952","MEAN_MOTION":15.01261361,"ECCENTRICITY":0.00014255,"INCLINATION":97.6021,"RA_OF_ASC_NODE":259.2685,"ARG_OF_PERICENTER":193.5529,"MEAN_ANOMALY":166.5657,"EPHEMERIS_TYPE":0,"CLASSIFICATION_TYPE":"U","NORAD_CAT_ID":53061,"ELEMENT_SET_NO":999,"REV_AT_EPOCH":20230,"BSTAR":-2.9404046e-5,"MEAN_MOTION_DOT":-4.36e-6,"MEAN_MOTION_DDOT":0},{"OBJECT_NAME":"STARLINK-4311","OBJECT_ID":"2022-077V","EPOCH":"2026-03-19T00:00:00.999648","MEAN_MOTION":15.05208897,"ECCENTRICITY":0.00014689,"INCLINATION":97.6026,"RA_OF_ASC_NODE":259.344,"ARG_OF_PERICENTER":88.9859,"MEAN_ANOMALY":219.277,"EPHEMERIS_TYPE":0,"CLASSIFICATION_TYPE":"U","NORAD_CAT_ID":53062,"ELEMENT_SET_NO":999,"REV_AT_EPOCH":577,"BSTAR":0.033474693,"MEAN_MOTION_DOT":0.0050739,"MEAN_MOTION_DDOT":0},{"OBJECT_NAME":"STARLINK-4307","OBJECT_ID":"2022-077W","EPOCH":"2026-03-18T22:24:11.459808","MEAN_MOTION":15.05648589,"ECCENTRICITY":0.00012997,"INCLINATION":97.6014,"RA_OF_ASC_NODE":260.2809,"ARG_OF_PERICENTER":99.0585,"MEAN_ANOMALY":261.0789,"EPHEMERIS_TYPE":0,"CLASSIFICATION_TYPE":"U","NORAD_CAT_ID":53063,"ELEMENT_SET_NO":999,"REV_AT_EPOCH":7395,"BSTAR":3.1335907e-5,"MEAN_MOTION_DOT":3.91e-6,"MEAN_MOTION_DDOT":0},{"OBJECT_NAME":"STARLINK-4313","OBJECT_ID":"2022-077X","EPOCH":"2026-03-18T22:40:09.044832","MEAN_MOTION":15.05646435,"ECCENTRICITY":0.00016428,"INCLINATION":97.6016,"RA_OF_ASC_NODE":260.3505,"ARG_OF_PERICENTER":90.0848,"MEAN_ANOMALY":270.0567,"EPHEMERIS_TYPE":0,"CLASSIFICATION_TYPE":"U","NORAD_CAT_ID":53064,"ELEMENT_SET_NO":999,"REV_AT_EPOCH":20237,"BSTAR":-2.3469228e-5,"MEAN_MOTION_DOT":-3.99e-6,"MEAN_MOTION_DDOT":0},{"OBJECT_NAME":"STARLINK-4312","OBJECT_ID":"2022-077Y","EPOCH":"2026-03-19T00:00:00.999648","MEAN_MOTION":15.05386528,"ECCENTRICITY":7.678e-5,"INCLINATION":97.6023,"RA_OF_ASC_NODE":259.3431,"ARG_OF_PERICENTER":53.6006,"MEAN_ANOMALY":314.7921,"EPHEMERIS_TYPE":0,"CLASSIFICATION_TYPE":"U","NORAD_CAT_ID":53065,"ELEMENT_SET_NO":999,"REV_AT_EPOCH":577,"BSTAR":0.003305794,"MEAN_MOTION_DOT":0.00047621,"MEAN_MOTION_DDOT":0},{"OBJECT_NAME":"STARLINK-4309","OBJECT_ID":"2022-077Z","EPOCH":"2026-03-18T22:32:26.794464","MEAN_MOTION":15.01263797,"ECCENTRICITY":0.00032071,"INCLINATION":97.6021,"RA_OF_ASC_NODE":259.2693,"ARG_OF_PERICENTER":195.8207,"MEAN_ANOMALY":164.2918,"EPHEMERIS_TYPE":0,"CLASSIFICATION_TYPE":"U","NORAD_CAT_ID":53066,"ELEMENT_SET_NO":999,"REV_AT_EPOCH":20230,"BSTAR":-9.5831641e-5,"MEAN_MOTION_DOT":-1.289e-5,"MEAN_MOTION_DDOT":0},{"OBJECT_NAME":"STARLINK-4325","OBJECT_ID":"2022-077AB","EPOCH":"2026-03-18T22:32:10.958208","MEAN_MOTION":15.05647602,"ECCENTRICITY":0.00013153,"INCLINATION":97.6015,"RA_OF_ASC_NODE":260.3415,"ARG_OF_PERICENTER":86.7433,"MEAN_ANOMALY":273.3944,"EPHEMERIS_TYPE":0,"CLASSIFICATION_TYPE":"U","NORAD_CAT_ID":53068,"ELEMENT_SET_NO":999,"REV_AT_EPOCH":20237,"BSTAR":2.8806335e-5,"MEAN_MOTION_DOT":3.55e-6,"MEAN_MOTION_DDOT":0},{"OBJECT_NAME":"STARLINK-4323","OBJECT_ID":"2022-077AC","EPOCH":"2026-03-18T22:24:07.303968","MEAN_MOTION":15.01258521,"ECCENTRICITY":0.0003441,"INCLINATION":97.6026,"RA_OF_ASC_NODE":259.256,"ARG_OF_PERICENTER":154.2418,"MEAN_ANOMALY":205.8978,"EPHEMERIS_TYPE":0,"CLASSIFICATION_TYPE":"U","NORAD_CAT_ID":53069,"ELEMENT_SET_NO":999,"REV_AT_EPOCH":20230,"BSTAR":6.869104e-6,"MEAN_MOTION_DOT":3.0e-7,"MEAN_MOTION_DDOT":0},{"OBJECT_NAME":"STARLINK-4342","OBJECT_ID":"2022-077AD","EPOCH":"2026-03-18T20:00:39.547584","MEAN_MOTION":15.05647322,"ECCENTRICITY":0.00011614,"INCLINATION":97.6031,"RA_OF_ASC_NODE":260.3257,"ARG_OF_PERICENTER":99.9303,"MEAN_ANOMALY":260.2054,"EPHEMERIS_TYPE":0,"CLASSIFICATION_TYPE":"U","NORAD_CAT_ID":53070,"ELEMENT_SET_NO":999,"REV_AT_EPOCH":20236,"BSTAR":1.3263953e-5,"MEAN_MOTION_DOT":1.31e-6,"MEAN_MOTION_DDOT":0},{"OBJECT_NAME":"STARLINK-4328","OBJECT_ID":"2022-077AE","EPOCH":"2026-03-18T11:58:10.212384","MEAN_MOTION":15.05647322,"ECCENTRICITY":0.00016737,"INCLINATION":97.6032,"RA_OF_ASC_NODE":259.985,"ARG_OF_PERICENTER":86.6578,"MEAN_ANOMALY":273.484,"EPHEMERIS_TYPE":0,"CLASSIFICATION_TYPE":"U","NORAD_CAT_ID":53071,"ELEMENT_SET_NO":999,"REV_AT_EPOCH":20231,"BSTAR":1.1287637e-5,"MEAN_MOTION_DOT":1.02e-6,"MEAN_MOTION_DDOT":0}]
