STARLINK-4338           
1 53055U 22077N   26077.77287155 -.00000748  00000+0 -47662-4 0  9999
2 53055  97.6023 260.1340 0001593  83.2242 276.9166 15.05642194202347
STARLINK-4314           
1 53056U 22077P   26077.95839338  .00000304  00000+0  25259-4 0  9990
2 53056  97.6026 260.3574 0001862  89.6202 270.5238 15.05646565202376
STARLINK-4252           
1 53057U 22077Q   26077.78394156 -.00001823  00000+0 -12210-3 0  9997
2 53057  97.6032 260.2652 0000892  56.9430 303.1883 15.05662378202359
STARLINK-4317           
1 53058U 22077R   26077.94583358  .00000822  00000+0  62484-4 0  9995
2 53058  97.6026 259.2984 0003209  88.9174 271.2420 15.04838127202318
STARLINK-4320           
1 53059U 22077S   26077.94661698 -.00000372  00000+0 -24467-4 0  9991
2 53059  97.6012 259.2737 0000863 187.2263 172.8949 15.01258605202300
STARLINK-4305           
1 53060U 22077T   26077.95192951 -.00000123  00000+0 -50664-5 0  9998
2 53060  97.6016 259.2876 0001060  98.0152 262.1192 15.01258995202301
STARLINK-4308           
1 53061U 22077U   26077.94451993 -.00000436  00000+0 -29404-4 0  9996
2 53061  97.6021 259.2685 0001425 193.5529 166.5657 15.01261361202304
STARLINK-4311           
1 53062U 22077V   26078.00001157  .00507390  00000+0  33475-1 0  9997
2 53062  97.6026 259.3440 0001468  88.9859 219.2770 15.05208897  5773
STARLINK-4307           
1 53063U 22077W   26077.93346597  .00000391  00000+0  31336-4 0  9995
2 53063  97.6014 260.2809 0001299  99.0585 261.0789 15.05648589 73958
STARLINK-4313           
1 53064U 22077X   26077.94454913 -.00000399  00000+0 -23469-4 0  9997
2 53064  97.6016 260.3505 0001642  90.0848 270.0567 15.05646435202372
STARLINK-4312           
1 53065U 22077Y   26078.00001157  .00047621  00000+0  33058-2 0  9994
2 53065  97.6023 259.3431 0000767  53.6006 314.7921 15.05386528  5774
STARLINK-4309           
1 53066U 22077Z   26077.93919901 -.00001289  00000+0 -95832-4 0  9993
2 53066  97.6021 259.2693 0003207 195.8207 164.2918 15.01263797202306
STARLINK-4325           
1 53068U 22077AB  26077.93901572  .00000355  00000+0  28806-4 0  9998
2 53068  97.6015 260.3415 0001315  86.7433 273.3944 15.05647602202376
STARLINK-4323           
1 53069U 22077AC  26077.93341787  .00000030  00000+0  68691-5 0  9992
2 53069  97.6026 259.2560 0003441 154.2418 205.8978 15.01258521202307
STARLINK-4342           
1 53070U 22077AD  26077.83379106  .00000131  00000+0  13264-4 0  9996
2 53070  97.6031 260.3257 0001161  99.9303 260.2054 15.05647322202367
STARLINK-4328           
1 53071U 22077AE  26077.49872931  .00000102  00000+0  11288-4 0  9995
2 53071  97.6032 259.9850 0001673  86.6578 273.4840 15.05647322202311
